{"fetched_at":"2026-03-30T09:12:31Z","count":15922,"tles":[{"name":"STARLINK-2415","line1":"1 47828U 21018AT  26087.61773493  .00020729  00000+0  71057-3 0  9996","line2":"2 47828  53.1607 167.3645 0001684  85.2471 274.8722 15.30175806279456","category":"Starlink"}]}