{
  "norad_id": 47828,
  "name": "STARLINK-2415",
  "history": [
    {
      "epoch": "2026-03-28T14:49:32.297952",
      "apogee_km": 476.4414259478335,
      "perigee_km": 474.1331926404646,
      "latitude_deg": -50.97865012143439,
      "longitude_deg": 102.10255328007042,
      "semi_major_axis_km": 6853.424309294149,
      "eccentricity": 0.0001684,
      "inclination_deg": 53.1607,
      "raan_deg": 167.3645,
      "arg_perigee_deg": 85.2471,
      "mean_anomaly_deg": 274.8722,
      "mean_motion_rev_day": 15.30175806
    }
  ]
}